[
    {
        "Altitude(m)": 555226.471713489,
        "Argument of Periapsis(deg)": 0.013245982221427002,
        "Eccentricity": 0.0,
        "Inclination(deg)": 53.0,
        "Latitude(deg)": 31.124557158823652,
        "Longitude(deg)": 95.32883556459112,
        "Mean Anomaly(deg)": 40.183185735155185,
        "RAAN(deg)": 169.98028673705605,
        "Satellite Name": "Starlink Shell 1 749",
        "Satellite Number": 749,
        "Semi-Major Axis(m)": 6931778.249405717,
        "Time(s)": 380
    },
    {
        "Altitude(m)": 555302.6520134413,
        "Argument of Periapsis(deg)": 0.013594560700938237,
        "Eccentricity": 0.0,
        "Inclination(deg)": 53.0,
        "Latitude(deg)": 31.571869624559298,
        "Longitude(deg)": 95.80314803484629,
        "Mean Anomaly(deg)": 40.810016938711904,
        "RAAN(deg)": 169.97976796697856,
        "Satellite Name": "Starlink Shell 1 749",
        "Satellite Number": 749,
        "Semi-Major Axis(m)": 6931778.249405717,
        "Time(s)": 390
    },
    {
        "Altitude(m)": 555379.7053547672,
        "Argument of Periapsis(deg)": 0.013943139180449475,
        "Eccentricity": 0.0,
        "Inclination(deg)": 53.0,
        "Latitude(deg)": 32.01705113595139,
        "Longitude(deg)": 96.28239056432437,
        "Mean Anomaly(deg)": 41.4368481422686,
        "RAAN(deg)": 169.9792491969011,
        "Satellite Name": "Starlink Shell 1 749",
        "Satellite Number": 749,
        "Semi-Major Axis(m)": 6931778.249405717,
        "Time(s)": 400
    },
    {
        "Altitude(m)": 555457.5768980993,
        "Argument of Periapsis(deg)": 0.014291717659960712,
        "Eccentricity": 0.0,
        "Inclination(deg)": 53.0,
        "Latitude(deg)": 32.460044626215165,
        "Longitude(deg)": 96.76667373130891,
        "Mean Anomaly(deg)": 42.06367934582532,
        "RAAN(deg)": 169.9787304268236,
        "Satellite Name": "Starlink Shell 1 749",
        "Satellite Number": 749,
        "Semi-Major Axis(m)": 6931778.249405717,
        "Time(s)": 410
    },
    {
        "Altitude(m)": 555536.2115918623,
        "Argument of Periapsis(deg)": 0.014640296139471948,
        "Eccentricity": 0.0,
        "Inclination(deg)": 53.0,
        "Latitude(deg)": 32.900791714868724,
        "Longitude(deg)": 97.25610879043842,
        "Mean Anomaly(deg)": 42.69051054938204,
        "RAAN(deg)": 169.97821165674617,
        "Satellite Name": "Starlink Shell 1 749",
        "Satellite Number": 749,
        "Semi-Major Axis(m)": 6931778.249405717,
        "Time(s)": 420
    },
    {
        "Altitude(m)": 555615.5542010547,
        "Argument of Periapsis(deg)": 0.014988874618983185,
        "Eccentricity": 0.0,
        "Inclination(deg)": 53.0,
        "Latitude(deg)": 33.3392326748251,
        "Longitude(deg)": 97.75080813730638,
        "Mean Anomaly(deg)": 43.317341752938766,
        "RAAN(deg)": 169.97769288666868,
        "Satellite Name": "Starlink Shell 1 749",
        "Satellite Number": 749,
        "Semi-Major Axis(m)": 6931778.249405717,
        "Time(s)": 430
    },
    {
        "Altitude(m)": 555695.5493360193,
        "Argument of Periapsis(deg)": 0.015337453098494424,
        "Eccentricity": 0.0,
        "Inclination(deg)": 53.0,
        "Latitude(deg)": 33.775306399427826,
        "Longitude(deg)": 98.25088576691144,
        "Mean Anomaly(deg)": 43.94417295649546,
        "RAAN(deg)": 169.97717411659121,
        "Satellite Name": "Starlink Shell 1 749",
        "Satellite Number": 749,
        "Semi-Major Axis(m)": 6931778.249405717,
        "Time(s)": 440
    },
    {
        "Altitude(m)": 555776.141481293,
        "Argument of Periapsis(deg)": 0.01568603157800566,
        "Eccentricity": 0.0,
        "Inclination(deg)": 53.0,
        "Latitude(deg)": 34.208950369505956,
        "Longitude(deg)": 98.75645621264763,
        "Mean Anomaly(deg)": 44.57100416005218,
        "RAAN(deg)": 169.97665534651372,
        "Satellite Name": "Starlink Shell 1 749",
        "Satellite Number": 749,
        "Semi-Major Axis(m)": 6931778.249405717,
        "Time(s)": 450
    },
    {
        "Altitude(m)": 555857.2750244527,
        "Argument of Periapsis(deg)": 0.0160346100575169,
        "Eccentricity": 0.0,
        "Inclination(deg)": 53.0,
        "Latitude(deg)": 34.64010062053066,
        "Longitude(deg)": 99.26763499112766,
        "Mean Anomaly(deg)": 45.19783536360888,
        "RAAN(deg)": 169.97613657643626,
        "Satellite Name": "Starlink Shell 1 749",
        "Satellite Number": 749,
        "Semi-Major Axis(m)": 6931778.249405717,
        "Time(s)": 460
    },
    {
        "Altitude(m)": 555938.8942849461,
        "Argument of Periapsis(deg)": 0.016383188537028134,
        "Eccentricity": 0.0,
        "Inclination(deg)": 53.0,
        "Latitude(deg)": 35.068691709966096,
        "Longitude(deg)": 99.78453903948866,
        "Mean Anomaly(deg)": 45.82466656716563,
        "RAAN(deg)": 169.97561780635877,
        "Satellite Name": "Starlink Shell 1 749",
        "Satellite Number": 749,
        "Semi-Major Axis(m)": 6931778.249405717,
        "Time(s)": 470
    },
    {
        "Altitude(m)": 556020.9435429457,
        "Argument of Periapsis(deg)": 0.01673176701653937,
        "Eccentricity": 0.0,
        "Inclination(deg)": 53.0,
        "Latitude(deg)": 35.494656684914744,
        "Longitude(deg)": 100.30728563180695,
        "Mean Anomaly(deg)": 46.45149777072234,
        "RAAN(deg)": 169.97509903628134,
        "Satellite Name": "Starlink Shell 1 749",
        "Satellite Number": 749,
        "Semi-Major Axis(m)": 6931778.249405717,
        "Time(s)": 480
    },
    {
        "Altitude(m)": 556103.3670681574,
        "Argument of Periapsis(deg)": 0.017080345496050607,
        "Eccentricity": 0.0,
        "Inclination(deg)": 53.0,
        "Latitude(deg)": 35.91792705016816,
        "Longitude(deg)": 100.83599279985843,
        "Mean Anomaly(deg)": 47.078328974279046,
        "RAAN(deg)": 169.97458026620384,
        "Satellite Name": "Starlink Shell 1 749",
        "Satellite Number": 749,
        "Semi-Major Axis(m)": 6931778.249405717,
        "Time(s)": 490
    },
    {
        "Altitude(m)": 556186.1091485595,
        "Argument of Periapsis(deg)": 0.017428923975561842,
        "Eccentricity": 0.0,
        "Inclination(deg)": 53.0,
        "Latitude(deg)": 36.338432736784036,
        "Longitude(deg)": 101.3707797448132,
        "Mean Anomaly(deg)": 47.70516017783576,
        "RAAN(deg)": 169.97406149612638,
        "Satellite Name": "Starlink Shell 1 749",
        "Satellite Number": 749,
        "Semi-Major Axis(m)": 6931778.249405717,
        "Time(s)": 500
    },
    {
        "Altitude(m)": 556269.1141191489,
        "Argument of Periapsis(deg)": 0.01777750245507308,
        "Eccentricity": 0.0,
        "Inclination(deg)": 53.0,
        "Latitude(deg)": 36.756102071321216,
        "Longitude(deg)": 101.91176572643737,
        "Mean Anomaly(deg)": 48.331991381392456,
        "RAAN(deg)": 169.9735427260489,
        "Satellite Name": "Starlink Shell 1 749",
        "Satellite Number": 749,
        "Semi-Major Axis(m)": 6931778.249405717,
        "Time(s)": 510
    },
    {
        "Altitude(m)": 556352.3263905592,
        "Argument of Periapsis(deg)": 0.018126080934584315,
        "Eccentricity": 0.0,
        "Inclination(deg)": 53.0,
        "Latitude(deg)": 37.17086174587632,
        "Longitude(deg)": 102.45907045498433,
        "Mean Anomaly(deg)": 48.9588225849492,
        "RAAN(deg)": 169.9730239559714,
        "Satellite Name": "Starlink Shell 1 749",
        "Satellite Number": 749,
        "Semi-Major Axis(m)": 6931778.249405717,
        "Time(s)": 520
    },
    {
        "Altitude(m)": 556435.6904776361,
        "Argument of Periapsis(deg)": 0.018474659414095554,
        "Eccentricity": 0.0,
        "Inclination(deg)": 53.0,
        "Latitude(deg)": 37.582636789076915,
        "Longitude(deg)": 103.01281447231746,
        "Mean Anomaly(deg)": 49.585653788505894,
        "RAAN(deg)": 169.97250518589394,
        "Satellite Name": "Starlink Shell 1 749",
        "Satellite Number": 749,
        "Semi-Major Axis(m)": 6931778.249405717,
        "Time(s)": 530
    },
    {
        "Altitude(m)": 556519.1510278841,
        "Argument of Periapsis(deg)": 0.018823237893606792,
        "Eccentricity": 0.0,
        "Inclination(deg)": 53.0,
        "Latitude(deg)": 37.991350538200194,
        "Longitude(deg)": 103.57311800879269,
        "Mean Anomaly(deg)": 50.21248499206262,
        "RAAN(deg)": 169.9719864158165,
        "Satellite Name": "Starlink Shell 1 749",
        "Satellite Number": 749,
        "Semi-Major Axis(m)": 6931778.249405717,
        "Time(s)": 540
    },
    {
        "Altitude(m)": 556602.6528498277,
        "Argument of Periapsis(deg)": 0.019171816373118027,
        "Eccentricity": 0.0,
        "Inclination(deg)": 53.0,
        "Latitude(deg)": 38.3969246125977,
        "Longitude(deg)": 104.14010134104677,
        "Mean Anomaly(deg)": 50.83931619561931,
        "RAAN(deg)": 169.971467645739,
        "Satellite Name": "Starlink Shell 1 749",
        "Satellite Number": 749,
        "Semi-Major Axis(m)": 6931778.249405717,
        "Time(s)": 550
    },
    {
        "Altitude(m)": 556686.1409412374,
        "Argument of Periapsis(deg)": 0.019520394852629266,
        "Eccentricity": 0.0,
        "Inclination(deg)": 53.0,
        "Latitude(deg)": 38.79927888862206,
        "Longitude(deg)": 104.71388513720397,
        "Mean Anomaly(deg)": 51.46614739917604,
        "RAAN(deg)": 169.97094887566152,
        "Satellite Name": "Starlink Shell 1 749",
        "Satellite Number": 749,
        "Semi-Major Axis(m)": 6931778.249405717,
        "Time(s)": 560
    }
]